NORAD_CAT_ID,OBJECT_NAME,OBJECT_TYPE,EPOCH,MEAN_MOTION,ECCENTRICITY,INCLINATION,RA_OF_ASC_NODE,ARG_OF_PERICENTER,MEAN_ANOMALY,BSTAR,MEAN_MOTION_DOT,MEAN_MOTION_DDOT,TLE_LINE0,TLE_LINE1,TLE_LINE2,SEMIMAJOR_AXIS,PERIOD,APOGEE,PERIGEE,DECAYED
54158.0,STARLINK-5297,PAYLOAD,2023-12-26 10:59:01,15.08840647,0.0001435,53.2176,24.5966,84.9954,275.1202,-3.8161e-05,-8.95e-06,0.0,0 STARLINK-5297,1 54158U 22141B   23360.45765923 -.00000895  00000-0 -38161-4 0  9995,2 54158  53.2176  24.5966 0001435  84.9954 275.1202 15.08840647 64308,6917.878,95.438,540.736,538.751,0.0
54158.0,STARLINK-5297,PAYLOAD,2023-12-27 10:49:48,15.08848976,0.0001614,53.2181,20.1321,88.2117,271.906,0.00013655,1.886e-05,0.0,0 STARLINK-5297,1 54158U 22141B   23361.45125177  .00001886  00000-0  13655-3 0  9996,2 54158  53.2181  20.1321 0001614  88.2117 271.9060 15.08848976 64453,6917.853,95.437,540.834,538.601,0.0
54158.0,STARLINK-5297,PAYLOAD,2023-12-28 01:08:17,15.08830326,0.0001793,53.2179,17.4536,128.8539,231.2613,0.00012383,1.683e-05,0.0,0 STARLINK-5297,1 54158U 22141B   23362.04742134  .00001683  00000-0  12383-3 0  9992,2 54158  53.2179  17.4536 0001793 128.8539 231.2613 15.08830326 64547,6917.91,95.438,541.015,538.535,0.0
54158.0,STARLINK-5297,PAYLOAD,2023-12-28 07:29:49,15.08837256,0.0001784,53.217,16.2697,88.9487,271.1709,0.00016341,2.313e-05,0.0,0 STARLINK-5297,1 54158U 22141B   23362.31238111  .00002313  00000-0  16341-3 0  9996,2 54158  53.2170  16.2697 0001784  88.9487 271.1709 15.08837256 64583,6917.889,95.438,540.988,538.52,0.0
54158.0,STARLINK-5297,PAYLOAD,2023-12-29 07:20:36,15.08847101,0.0001833,53.2186,11.8092,117.6602,242.4576,5.7808e-05,6.32e-06,0.0,0 STARLINK-5297,1 54158U 22141B   23363.30597596  .00000632  00000-0  57808-4 0  9997,2 54158  53.2186  11.8092 0001833 117.6602 242.4576 15.08847101 64734,6917.859,95.437,540.992,538.456,0.0
54158.0,STARLINK-5297,PAYLOAD,2023-12-30 04:00:37,15.08842327,0.0001709,53.2186,7.9443,79.5192,280.5993,0.00010051,1.312e-05,0.0,0 STARLINK-5297,1 54158U 22141B   23364.16709938  .00001312  00000-0  10051-3 0  9991,2 54158  53.2186   7.9443 0001709  79.5192 280.5993 15.08842327 64867,6917.873,95.437,540.921,538.556,0.0
54158.0,STARLINK-5297,PAYLOAD,2023-12-30 07:11:23,15.08843186,0.0001695,53.2195,7.3494,85.8345,274.2841,0.00010192,1.335e-05,0.0,0 STARLINK-5297,1 54158U 22141B   23364.29957807  .00001335  00000-0  10192-3 0  9996,2 54158  53.2195   7.3494 0001695  85.8345 274.2841 15.08843186 64889,6917.871,95.437,540.908,538.563,0.0
54158.0,STARLINK-5297,PAYLOAD,2023-12-31 07:02:10,15.08838685,0.0001799,53.2197,2.8914,104.6529,255.4663,2.4094e-05,9.5e-07,0.0,0 STARLINK-5297,1 54158U 22141B   23365.29318180  .00000095  00000-0  24094-4 0  9991,2 54158  53.2197   2.8914 0001799 104.6529 255.4663 15.08838685 65036,6917.884,95.438,540.994,538.505,0.0
54158.0,STARLINK-5297,PAYLOAD,2024-01-01 06:52:58,15.08818131,0.0001857,53.2188,358.4293,109.5408,250.5785,0.00028469,4.243e-05,0.0,0 STARLINK-5297,1 54158U 22141B   24001.28678912  .00004243  00000-0  28469-3 0  9998,2 54158  53.2188 358.4293 0001857 109.5408 250.5785 15.08818131 65182,6917.947,95.439,541.097,538.528,0.0
54158.0,STARLINK-5297,PAYLOAD,2024-01-01 22:46:49,15.0883605,0.0001647,53.2186,355.4541,102.6413,257.4763,5.9579e-05,6.6e-06,0.0,0 STARLINK-5297,1 54158U 22141B   24001.94918665  .00000660  00000-0  59579-4 0  9999,2 54158  53.2186 355.4541 0001647 102.6413 257.4763 15.08836050 65283,6917.892,95.438,540.897,538.618,0.0
54158.0,STARLINK-5297,PAYLOAD,2024-01-02 03:32:58,15.08839096,0.0001559,53.2178,354.5607,102.425,257.6917,7.8421e-05,9.6e-06,0.0,0 STARLINK-5297,1 54158U 22141B   24002.14790468  .00000960  00000-0  78421-4 0  9991,2 54158  53.2178 354.5607 0001559 102.4250 257.6917 15.08839096 65316,6917.883,95.438,540.827,538.67,0.0
54158.0,STARLINK-5297,PAYLOAD,2024-01-02 08:19:08,15.08843017,0.0001529,53.2179,353.6685,91.7037,268.4131,0.00011025,1.467e-05,0.0,0 STARLINK-5297,1 54158U 22141B   24002.34662243  .00001467  00000-0  11025-3 0  9991,2 54158  53.2179 353.6685 0001529  91.7037 268.4131 15.08843017 65342,6917.871,95.437,540.794,538.678,0.0
54158.0,STARLINK-5297,PAYLOAD,2024-01-03 06:34:32,15.08840595,0.0001518,53.2177,349.5052,85.4405,274.6761,0.00010026,1.308e-05,0.0,0 STARLINK-5297,1 54158U 22141B   24003.27398602  .00001308  00000-0  10026-3 0  9993,2 54158  53.2177 349.5052 0001518  85.4405 274.6761 15.08840595 65480,6917.879,95.438,540.794,538.693,0.0
54158.0,STARLINK-5297,PAYLOAD,2024-01-04 08:00:42,15.08850144,0.0001576,53.2181,344.7475,81.8947,278.2224,0.00011248,1.503e-05,0.0,0 STARLINK-5297,1 54158U 22141B   24004.33381969  .00001503  00000-0  11248-3 0  9993,2 54158  53.2181 344.7475 0001576  81.8947 278.2224 15.08850144 65649,6917.849,95.437,540.805,538.624,0.0
54158.0,STARLINK-5297,PAYLOAD,2024-01-04 22:19:11,15.08835234,0.0001521,53.2184,342.0697,95.2842,264.8324,2.4244e-06,-2.49e-06,0.0,0 STARLINK-5297,1 54158U 22141B   24004.92999156 -.00000249  00000-0  24244-5 0  9990,2 54158  53.2184 342.0697 0001521  95.2842 264.8324 15.08835234 65737,6917.895,95.438,540.812,538.708,0.0
54158.0,STARLINK-5297,PAYLOAD,2024-01-05 04:40:43,15.08838508,0.0001655,53.2178,340.8834,94.0433,266.0748,2.6082e-05,1.27e-06,0.0,0 STARLINK-5297,1 54158U 22141B   24005.19494929  .00000127  00000-0  26082-4 0  9993,2 54158  53.2178 340.8834 0001655  94.0433 266.0748 15.08838508 65775,6917.885,95.438,540.895,538.605,0.0
54158.0,STARLINK-5297,PAYLOAD,2024-01-05 07:51:29,15.08840687,0.0001567,53.2178,340.2878,92.8802,267.237,4.8402e-05,4.82e-06,0.0,0 STARLINK-5297,1 54158U 22141B   24005.32742755  .00000482  00000-0  48402-4 0  9995,2 54158  53.2178 340.2878 0001567  92.8802 267.2370 15.08840687 65792,6917.878,95.438,540.827,538.659,0.0
54158.0,STARLINK-5297,PAYLOAD,2024-01-06 04:31:29,15.08850023,0.0001499,53.2173,336.4212,107.81,252.3056,9.7305e-05,1.261e-05,0.0,0 STARLINK-5297,1 54158U 22141B   24006.18853883  .00001261  00000-0  97305-4 0  9997,2 54158  53.2173 336.4212 0001499 107.8100 252.3056 15.08850023 65924,6917.85,95.437,540.752,538.678,0.0
54158.0,STARLINK-5297,PAYLOAD,2024-01-06 22:00:45,15.08840012,0.0001685,53.2191,333.1503,93.9092,266.2093,5.3058e-05,5.56e-06,0.0,0 STARLINK-5297,1 54158U 22141B   24006.91718768  .00000556  00000-0  53058-4 0  9993,2 54158  53.2191 333.1503 0001685  93.9092 266.2093 15.08840012 66038,6917.88,95.438,540.911,538.58,0.0
54158.0,STARLINK-5297,PAYLOAD,2024-01-07 04:22:17,15.08839009,0.0001538,53.2186,331.9609,103.0638,257.0526,3.4591e-05,2.63e-06,0.0,0 STARLINK-5297,1 54158U 22141B   24007.18214764  .00000263  00000-0  34591-4 0  9996,2 54158  53.2186 331.9609 0001538 103.0638 257.0526 15.08839009 66078,6917.883,95.438,540.812,538.684,0.0
54158.0,STARLINK-5297,PAYLOAD,2024-01-07 07:33:03,15.08840179,0.0001583,53.2187,331.3655,106.4534,253.6632,3.4061e-05,2.54e-06,0.0,0 STARLINK-5297,1 54158U 22141B   24007.31462705  .00000254  00000-0  34061-4 0  9993,2 54158  53.2187 331.3655 0001583 106.4534 253.6632 15.08840179 66098,6917.88,95.438,540.84,538.65,0.0
54158.0,STARLINK-5297,PAYLOAD,2024-01-08 07:23:50,15.08844072,0.0001478,53.2188,326.9043,99.3715,260.7445,4.8494e-05,4.84e-06,0.0,0 STARLINK-5297,1 54158U 22141B   24008.30822467  .00000484  00000-0  48494-4 0  9998,2 54158  53.2188 326.9043 0001478  99.3715 260.7445 15.08844072 66248,6917.868,95.437,540.755,538.71,0.0
54158.0,STARLINK-5297,PAYLOAD,2024-01-09 02:28:28,15.08835773,0.000159,53.2183,323.3351,103.1762,256.9408,4.2395e-05,3.87e-06,0.0,0 STARLINK-5297,1 54158U 22141B   24009.10311218  .00000387  00000-0  42395-4 0  9990,2 54158  53.2183 323.3351 0001590 103.1762 256.9408 15.08835773 66364,6917.893,95.438,540.858,538.658,0.0
54158.0,STARLINK-5297,PAYLOAD,2024-01-09 19:57:43,15.08836829,0.0001659,53.2187,320.0632,109.0272,251.09,4.1018e-05,3.65e-06,0.0,0 STARLINK-5297,1 54158U 22141B   24009.83175391  .00000365  00000-0  41018-4 0  9997,2 54158  53.2187 320.0632 0001659 109.0272 251.0900 15.08836829 66479,6917.89,95.438,540.903,538.607,0.0
54158.0,STARLINK-5297,PAYLOAD,2024-01-10 03:54:38,15.08852656,0.0001403,53.2181,318.5796,94.8829,265.2324,0.00010347,1.36e-05,0.0,0 STARLINK-5297,1 54158U 22141B   24010.16294304  .00001360  00000-0  10347-3 0  9997,2 54158  53.2181 318.5796 0001403  94.8829 265.2324 15.08852656 66521,6917.842,95.437,540.677,538.736,0.0
54158.0,STARLINK-5297,PAYLOAD,2024-01-10 19:48:30,15.08838858,0.0001447,53.2174,315.6102,76.4896,283.6257,0.00015277,2.144e-05,0.0,0 STARLINK-5297,1 54158U 22141B   24010.82535166  .00002144  00000-0  15277-3 0  9992,2 54158  53.2174 315.6102 0001447  76.4896 283.6257 15.08838858 66628,6917.884,95.438,540.75,538.748,0.0
54158.0,STARLINK-5297,PAYLOAD,2024-01-11 05:20:48,15.08847033,0.0001419,53.2184,313.8218,88.2429,271.8726,0.00013555,1.87e-05,0.0,0 STARLINK-5297,1 54158U 22141B   24011.22278641  .00001870  00000-0  13555-3 0  9991,2 54158  53.2184 313.8218 0001419  88.2429 271.8726 15.08847033 66680,6917.859,95.437,540.706,538.742,0.0
54158.0,STARLINK-5297,PAYLOAD,2024-01-11 19:39:17,15.08840244,0.0001181,53.2188,311.1445,100.6121,259.5004,-5.3037e-05,-1.132e-05,0.0,0 STARLINK-5297,1 54158U 22141B   24011.81895611 -.00001132  00000-0 -53037-4 0  9991,2 54158  53.2188 311.1445 0001181 100.6121 259.5004 15.08840244 66770,6917.88,95.438,540.562,538.928,0.0
54158.0,STARLINK-5297,PAYLOAD,2024-01-12 02:00:49,15.08845021,0.0001566,53.2188,309.9582,91.5914,268.5257,4.1202e-05,3.68e-06,0.0,0 STARLINK-5297,1 54158U 22141B   24012.08391159  .00000368  00000-0  41202-4 0  9998,2 54158  53.2188 309.9582 0001566  91.5914 268.5257 15.08845021 66815,6917.865,95.437,540.813,538.647,0.0
54158.0,STARLINK-5297,PAYLOAD,2024-01-12 19:30:04,15.08836406,0.0001652,53.2184,306.6891,85.3903,274.7277,9.353e-05,1.201e-05,0.0,0 STARLINK-5297,1 54158U 22141B   24012.81255685  .00001201  00000-0  93530-4 0  9990,2 54158  53.2184 306.6891 0001652  85.3903 274.7277 15.08836406 66923,6917.891,95.438,540.899,538.614,0.0
